{
  "type": "FeatureCollection",
  "features": [
    {
      "type": "Feature",
      "properties": {
        "norad_id": 66566,
        "name": "STARLINK-35871",
        "group": "last-30-days",
        "lat": -35.080093431250226,
        "lon": 82.97812843462908,
        "alt_km": 417.2746285589574,
        "timestamp": "2025-12-10T21:43:20.862378+00:00",
        "meta_object_name": "STARLINK-35871",
        "meta_object_id": "2025-268K",
        "meta_epoch": "2025-12-10T14:00:03.000384",
        "meta_mean_motion": 15.50614106,
        "meta_eccentricity": 0.00015883,
        "meta_inclination": 43.0001,
        "meta_ra_of_asc_node": 133.7683,
        "meta_arg_of_pericenter": 263.3897,
        "meta_mean_anomaly": 41.0863,
        "meta_ephemeris_type": 0,
        "meta_classification_type": "U",
        "meta_norad_cat_id": 66566,
        "meta_element_set_no": 999,
        "meta_rev_at_epoch": 432,
        "meta_bstar": -0.0018703526,
        "meta_mean_motion_dot": -0.00108694,
        "meta_mean_motion_ddot": 0,
        "tle_line1": "1 66566U 25268K   25344.58336806 -.00108694  00000+0 -18704-2 0  9990",
        "tle_line2": "2 66566  43.0001 133.7683 0001588 263.3897  41.0863 15.50614106  4320"
      },
      "geometry": {
        "type": "Point",
        "coordinates": [
          82.97812843462908,
          -35.080093431250226
        ]
      }
    },
    {
      "type": "Feature",
      "properties": {
        "norad_id": 66567,
        "name": "STARLINK-35825",
        "group": "last-30-days",
        "lat": -34.10322441910991,
        "lon": 85.27406294420364,
        "alt_km": 416.1504723937833,
        "timestamp": "2025-12-10T21:43:20.862388+00:00",
        "meta_object_name": "STARLINK-35825",
        "meta_object_id": "2025-268L",
        "meta_epoch": "2025-12-10T14:00:03.000384",
        "meta_mean_motion": 15.5068894,
        "meta_eccentricity": 0.0002079,
        "meta_inclination": 43,
        "meta_ra_of_asc_node": 133.7636,
        "meta_arg_of_pericenter": 281.3747,
        "meta_mean_anomaly": 25.0696,
        "meta_ephemeris_type": 0,
        "meta_classification_type": "U",
        "meta_norad_cat_id": 66567,
        "meta_element_set_no": 999,
        "meta_rev_at_epoch": 432,
        "meta_bstar": 0.0018273599,
        "meta_mean_motion_dot": 0.00108791,
        "meta_mean_motion_ddot": 0,
        "tle_line1": "1 66567U 25268L   25344.58336806  .00108791  00000+0  18274-2 0  9999",
        "tle_line2": "2 66567  43.0000 133.7636 0002079 281.3747  25.0696 15.50688940  4321"
      },
      "geometry": {
        "type": "Point",
        "coordinates": [
          85.27406294420364,
          -34.10322441910991
        ]
      }
    },
    {
      "type": "Feature",
      "properties": {
        "norad_id": 66568,
        "name": "STARLINK-35803",
        "group": "last-30-days",
        "lat": -33.29486146863372,
        "lon": 87.06410817209222,
        "alt_km": 417.2866877575143,
        "timestamp": "2025-12-10T21:43:20.862400+00:00",
        "meta_object_name": "STARLINK-35803",
        "meta_object_id": "2025-268M",
        "meta_epoch": "2025-12-10T14:00:03.000384",
        "meta_mean_motion": 15.50614117,
        "meta_eccentricity": 0.00014751,
        "meta_inclination": 43.0001,
        "meta_ra_of_asc_node": 133.7581,
        "meta_arg_of_pericenter": 262.9795,
        "meta_mean_anomaly": 45.3311,
        "meta_ephemeris_type": 0,
        "meta_classification_type": "U",
        "meta_norad_cat_id": 66568,
        "meta_element_set_no": 999,
        "meta_rev_at_epoch": 432,
        "meta_bstar": -0.0018938188,
        "meta_mean_motion_dot": -0.00110033,
        "meta_mean_motion_ddot": 0,
        "tle_line1": "1 66568U 25268M   25344.58336806 -.00110033  00000+0 -18938-2 0  9991",
        "tle_line2": "2 66568  43.0001 133.7581 0001475 262.9795  45.3311 15.50614117  4323"
      },
      "geometry": {
        "type": "Point",
        "coordinates": [
          87.06410817209222,
          -33.29486146863372
        ]
      }
    },
    {
      "type": "Feature",
      "properties": {
        "norad_id": 66569,
        "name": "STARLINK-35835",
        "group": "last-30-days",
        "lat": -32.352049061999715,
        "lon": 89.04627384316434,
        "alt_km": 417.19884538454426,
        "timestamp": "2025-12-10T21:43:20.862410+00:00",
        "meta_object_name": "STARLINK-35835",
        "meta_object_id": "2025-268N",
        "meta_epoch": "2025-12-10T14:00:03.000384",
        "meta_mean_motion": 15.50625311,
        "meta_eccentricity": 0.00015502,
        "meta_inclination": 43,
        "meta_ra_of_asc_node": 133.7546,
        "meta_arg_of_pericenter": 264.7658,
        "meta_mean_anomaly": 45.4575,
        "meta_ephemeris_type": 0,
        "meta_classification_type": "U",
        "meta_norad_cat_id": 66569,
        "meta_element_set_no": 999,
        "meta_rev_at_epoch": 432,
        "meta_bstar": -0.0022331696,
        "meta_mean_motion_dot": -0.00129423,
        "meta_mean_motion_ddot": 0,
        "tle_line1": "1 66569U 25268N   25344.58336806 -.00129423  00000+0 -22332-2 0  9998",
        "tle_line2": "2 66569  43.0000 133.7546 0001550 264.7658  45.4575 15.50625311  4327"
      },
      "geometry": {
        "type": "Point",
        "coordinates": [
          89.04627384316434,
          -32.352049061999715
        ]
      }
    },
    {
      "type": "Feature",
      "properties": {
        "norad_id": 66570,
        "name": "STARLINK-35834",
        "group": "last-30-days",
        "lat": -31.381751589404896,
        "lon": 90.97895235074202,
        "alt_km": 417.2672730329159,
        "timestamp": "2025-12-10T21:43:20.862420+00:00",
        "meta_object_name": "STARLINK-35834",
        "meta_object_id": "2025-268P",
        "meta_epoch": "2025-12-10T14:00:03.000384",
        "meta_mean_motion": 15.50624177,
        "meta_eccentricity": 0.00014271,
        "meta_inclination": 43.0003,
        "meta_ra_of_asc_node": 133.7483,
        "meta_arg_of_pericenter": 260.2467,
        "meta_mean_anomaly": 51.8877,
        "meta_ephemeris_type": 0,
        "meta_classification_type": "U",
        "meta_norad_cat_id": 66570,
        "meta_element_set_no": 999,
        "meta_rev_at_epoch": 432,
        "meta_bstar": -0.0020776678,
        "meta_mean_motion_dot": -0.00120564,
        "meta_mean_motion_ddot": 0,
        "tle_line1": "1 66570U 25268P   25344.58336806 -.00120564  00000+0 -20777-2 0  9998",
        "tle_line2": "2 66570  43.0003 133.7483 0001427 260.2467  51.8877 15.50624177  4329"
      },
      "geometry": {
        "type": "Point",
        "coordinates": [
          90.97895235074202,
          -31.381751589404896
        ]
      }
    },
    {
      "type": "Feature",
      "properties": {
        "norad_id": 66571,
        "name": "STARLINK-35836",
        "group": "last-30-days",
        "lat": -30.382791696718467,
        "lon": 92.87299419468606,
        "alt_km": 417.07690074604125,
        "timestamp": "2025-12-10T21:43:20.862431+00:00",
        "meta_object_name": "STARLINK-35836",
        "meta_object_id": "2025-268Q",
        "meta_epoch": "2025-12-10T14:00:03.000384",
        "meta_mean_motion": 15.50591133,
        "meta_eccentricity": 0.00015544,
        "meta_inclination": 43.0003,
        "meta_ra_of_asc_node": 133.7439,
        "meta_arg_of_pericenter": 264.9534,
        "meta_mean_anomaly": 49.1061,
        "meta_ephemeris_type": 0,
        "meta_classification_type": "U",
        "meta_norad_cat_id": 66571,
        "meta_element_set_no": 999,
        "meta_rev_at_epoch": 432,
        "meta_bstar": -0.00088622932,
        "meta_mean_motion_dot": -0.00052011,
        "meta_mean_motion_ddot": 0,
        "tle_line1": "1 66571U 25268Q   25344.58336806 -.00052011  00000+0 -88623-3 0  9995",
        "tle_line2": "2 66571  43.0003 133.7439 0001554 264.9534  49.1061 15.50591133  4328"
      },
      "geometry": {
        "type": "Point",
        "coordinates": [
          92.87299419468606,
          -30.382791696718467
        ]
      }
    },
    {
      "type": "Feature",
      "properties": {
        "norad_id": 66572,
        "name": "STARLINK-35870",
        "group": "last-30-days",
        "lat": -29.35248846220414,
        "lon": 94.73681242331958,
        "alt_km": 417.0926277314675,
        "timestamp": "2025-12-10T21:43:20.862441+00:00",
        "meta_object_name": "STARLINK-35870",
        "meta_object_id": "2025-268R",
        "meta_epoch": "2025-12-10T14:00:03.000384",
        "meta_mean_motion": 15.50610078,
        "meta_eccentricity": 0.00014886,
        "meta_inclination": 43.0002,
        "meta_ra_of_asc_node": 133.7405,
        "meta_arg_of_pericenter": 264.8633,
        "meta_mean_anomaly": 51.1118,
        "meta_ephemeris_type": 0,
        "meta_classification_type": "U",
        "meta_norad_cat_id": 66572,
        "meta_element_set_no": 999,
        "meta_rev_at_epoch": 432,
        "meta_bstar": -0.0016272379,
        "meta_mean_motion_dot": -0.00094762,
        "meta_mean_motion_ddot": 0,
        "tle_line1": "1 66572U 25268R   25344.58336806 -.00094762  00000+0 -16272-2 0  9995",
        "tle_line2": "2 66572  43.0002 133.7405 0001488 264.8633  51.1118 15.50610078  4322"
      },
      "geometry": {
        "type": "Point",
        "coordinates": [
          94.73681242331958,
          -29.35248846220414
        ]
      }
    }
  ]
}